[{"CCSDS_OMM_VERS":"3.0","COMMENT":"GENERATED VIA SPACE-TRACK.ORG API","CREATION_DATE":"2026-01-19T02:30:55","ORIGINATOR":"18 SPCS","OBJECT_NAME":"EXPLORER 11","OBJECT_ID":"1961-013A","CENTER_NAME":"EARTH","REF_FRAME":"TEME","TIME_SYSTEM":"UTC","MEAN_ELEMENT_THEORY":"SGP4","EPOCH":"2026-01-18T21:59:09.070080","MEAN_MOTION":"14.21196424","ECCENTRICITY":"0.04971287","INCLINATION":"28.7792","RA_OF_ASC_NODE":"96.6788","ARG_OF_PERICENTER":"174.7313","MEAN_ANOMALY":"185.8743","EPHEMERIS_TYPE":"0","CLASSIFICATION_TYPE":"U","NORAD_CAT_ID":"107","ELEMENT_SET_NO":"999","REV_AT_EPOCH":"25523","BSTAR":"0.00037923365000","MEAN_MOTION_DOT":"0.00003229","MEAN_MOTION_DDOT":"0.0000000000000","SEMIMAJOR_AXIS":"7199.446","PERIOD":"101.323","APOAPSIS":"1179.217","PERIAPSIS":"463.406","OBJECT_TYPE":"PAYLOAD","RCS_SIZE":"MEDIUM","COUNTRY_CODE":"US","LAUNCH_DATE":"1961-04-27","SITE":"AFETR","DECAY_DATE":null,"FILE":"4972920","GP_ID":"309393217","TLE_LINE0":"0 EXPLORER 11","TLE_LINE1":"1 00107U 61013A   26018.91607720  .00003229  00000-0  37923-3 0  9991","TLE_LINE2":"2 00107  28.7792  96.6788 0497129 174.7313 185.8743 14.21196424255234"},{"CCSDS_OMM_VERS":"3.0","COMMENT":"GENERATED VIA SPACE-TRACK.ORG API","CREATION_DATE":"2026-01-18T18:14:43","ORIGINATOR":"18 SPCS","OBJECT_NAME":"THOR ABLE DEB (YO)","OBJECT_ID":"1960-002D","CENTER_NAME":"EARTH","REF_FRAME":"TEME","TIME_SYSTEM":"UTC","MEAN_ELEMENT_THEORY":"SGP4","EPOCH":"2026-01-18T08:03:08.428608","MEAN_MOTION":"14.97022775","ECCENTRICITY":"0.00278725","INCLINATION":"48.1624","RA_OF_ASC_NODE":"117.5567","ARG_OF_PERICENTER":"301.5659","MEAN_ANOMALY":"58.2538","EPHEMERIS_TYPE":"0","CLASSIFICATION_TYPE":"U","NORAD_CAT_ID":"115","ELEMENT_SET_NO":"999","REV_AT_EPOCH":"49567","BSTAR":"0.00035747748000","MEAN_MOTION_DOT":"0.00003949","MEAN_MOTION_DDOT":"0.0000000000000","SEMIMAJOR_AXIS":"6954.238","PERIOD":"96.191","APOAPSIS":"595.487","PERIAPSIS":"556.720","OBJECT_TYPE":"DEBRIS","RCS_SIZE":"SMALL","COUNTRY_CODE":"US","LAUNCH_DATE":"1960-04-01","SITE":"AFETR","DECAY_DATE":null,"FILE":"4972861","GP_ID":"309361018","TLE_LINE0":"0 THOR ABLE DEB (YO)","TLE_LINE1":"1 00115U 60002D   26018.33551422  .00003949  00000-0  35748-3 0  9992","TLE_LINE2":"2 00115  48.1624 117.5567 0027873 301.5659  58.2538 14.97022775495678"},{"CCSDS_OMM_VERS":"3.0","COMMENT":"GENERATED VIA SPACE-TRACK.ORG API","CREATION_DATE":"2026-01-19T02:30:55","ORIGINATOR":"18 SPCS","OBJECT_NAME":"TRANSIT 4A","OBJECT_ID":"1961-015A","CENTER_NAME":"EARTH","REF_FRAME":"TEME","TIME_SYSTEM":"UTC","MEAN_ELEMENT_THEORY":"SGP4","EPOCH":"2026-01-18T21:59:26.236032","MEAN_MOTION":"13.92299916","ECCENTRICITY":"0.00736949","INCLINATION":"66.8084","RA_OF_ASC_NODE":"256.0848","ARG_OF_PERICENTER":"12.7858","MEAN_ANOMALY":"347.5067","EPHEMERIS_TYPE":"0","CLASSIFICATION_TYPE":"U","NORAD_CAT_ID":"116","ELEMENT_SET_NO":"999","REV_AT_EPOCH":"27592","BSTAR":"0.00008377990700","MEAN_MOTION_DOT":"0.00000033","MEAN_MOTION_DDOT":"0.0000000000000","SEMIMAJOR_AXIS":"7298.719","PERIOD":"103.426","APOAPSIS":"974.372","PERIAPSIS":"866.796","OBJECT_TYPE":"PAYLOAD","RCS_SIZE":"MEDIUM","COUNTRY_CODE":"US","LAUNCH_DATE":"1961-06-29","SITE":"AFETR","DECAY_DATE":null,"FILE":"4972920","GP_ID":"309393218","TLE_LINE0":"0 TRANSIT 4A","TLE_LINE1":"1 00116U 61015A   26018.91627588  .00000033  00000-0  83780-4 0  9990","TLE_LINE2":"2 00116  66.8084 256.0848 0073695  12.7858 347.5067 13.92299916275924"},{"CCSDS_OMM_VERS":"3.0","COMMENT":"GENERATED VIA SPACE-TRACK.ORG API","CREATION_DATE":"2026-01-19T02:30:55","ORIGINATOR":"18 SPCS","OBJECT_NAME":"SOLRAD 3\/INJUN 1","OBJECT_ID":"1961-015B","CENTER_NAME":"EARTH","REF_FRAME":"TEME","TIME_SYSTEM":"UTC","MEAN_ELEMENT_THEORY":"SGP4","EPOCH":"2026-01-18T22:48:53.018496","MEAN_MOTION":"13.90170344","ECCENTRICITY":"0.00732642","INCLINATION":"66.8134","RA_OF_ASC_NODE":"8.9650","ARG_OF_PERICENTER":"38.2975","MEAN_ANOMALY":"322.3275","EPHEMERIS_TYPE":"0","CLASSIFICATION_TYPE":"U","NORAD_CAT_ID":"117","ELEMENT_SET_NO":"999","REV_AT_EPOCH":"27331","BSTAR":"0.00003739333800","MEAN_MOTION_DOT":"-0.00000029","MEAN_MOTION_DDOT":"0.0000000000000","SEMIMAJOR_AXIS":"7306.171","PERIOD":"103.584","APOAPSIS":"981.564","PERIAPSIS":"874.508","OBJECT_TYPE":"PAYLOAD","RCS_SIZE":"MEDIUM","COUNTRY_CODE":"US","LAUNCH_DATE":"1961-06-29","SITE":"AFETR","DECAY_DATE":null,"FILE":"4972920","GP_ID":"309393719","TLE_LINE0":"0 SOLRAD 3\/INJUN 1","TLE_LINE1":"1 00117U 61015B   26018.95061364 -.00000029  00000-0  37393-4 0  9994","TLE_LINE2":"2 00117  66.8134   8.9650 0073264  38.2975 322.3275 13.90170344273315"},{"CCSDS_OMM_VERS":"3.0","COMMENT":"GENERATED VIA SPACE-TRACK.ORG API","CREATION_DATE":"2026-01-19T02:30:55","ORIGINATOR":"18 SPCS","OBJECT_NAME":"THOR ABLESTAR R\/B","OBJECT_ID":"1961-015C","CENTER_NAME":"EARTH","REF_FRAME":"TEME","TIME_SYSTEM":"UTC","MEAN_ELEMENT_THEORY":"SGP4","EPOCH":"2026-01-18T20:07:23.540160","MEAN_MOTION":"14.02671848","ECCENTRICITY":"0.00804667","INCLINATION":"66.7637","RA_OF_ASC_NODE":"73.0959","ARG_OF_PERICENTER":"12.2251","MEAN_ANOMALY":"348.0761","EPHEMERIS_TYPE":"0","CLASSIFICATION_TYPE":"U","NORAD_CAT_ID":"118","ELEMENT_SET_NO":"999","REV_AT_EPOCH":"29519","BSTAR":"0.00011121427000","MEAN_MOTION_DOT":"0.00000097","MEAN_MOTION_DDOT":"0.0000000000000","SEMIMAJOR_AXIS":"7262.695","PERIOD":"102.661","APOAPSIS":"943.000","PERIAPSIS":"826.119","OBJECT_TYPE":"ROCKET BODY","RCS_SIZE":"LARGE","COUNTRY_CODE":"US","LAUNCH_DATE":"1961-06-29","SITE":"AFETR","DECAY_DATE":null,"FILE":"4972920","GP_ID":"309393219","TLE_LINE0":"0 THOR ABLESTAR R\/B","TLE_LINE1":"1 00118U 61015C   26018.83846690  .00000097  00000-0  11121-3 0  9999","TLE_LINE2":"2 00118  66.7637  73.0959 0080467  12.2251 348.0761 14.02671848295194"},{"CCSDS_OMM_VERS":"3.0","COMMENT":"GENERATED VIA SPACE-TRACK.ORG API","CREATION_DATE":"2026-01-18T18:14:43","ORIGINATOR":"18 SPCS","OBJECT_NAME":"THOR ABLESTAR DEB","OBJECT_ID":"1961-015D","CENTER_NAME":"EARTH","REF_FRAME":"TEME","TIME_SYSTEM":"UTC","MEAN_ELEMENT_THEORY":"SGP4","EPOCH":"2026-01-18T11:31:46.947936","MEAN_MOTION":"14.27064529","ECCENTRICITY":"0.01001662","INCLINATION":"66.7265","RA_OF_ASC_NODE":"58.0203","ARG_OF_PERICENTER":"4.2522","MEAN_ANOMALY":"355.9402","EPHEMERIS_TYPE":"0","CLASSIFICATION_TYPE":"U","NORAD_CAT_ID":"119","ELEMENT_SET_NO":"999","REV_AT_EPOCH":"33695","BSTAR":"0.00042520083000","MEAN_MOTION_DOT":"0.00001009","MEAN_MOTION_DDOT":"0.0000000000000","SEMIMAJOR_AXIS":"7179.697","PERIOD":"100.906","APOAPSIS":"873.478","PERIAPSIS":"729.645","OBJECT_TYPE":"DEBRIS","RCS_SIZE":"MEDIUM","COUNTRY_CODE":"US","LAUNCH_DATE":"1961-06-29","SITE":"AFETR","DECAY_DATE":null,"FILE":"4972861","GP_ID":"309361020","TLE_LINE0":"0 THOR ABLESTAR DEB","TLE_LINE1":"1 00119U 61015D   26018.48040449  .00001009  00000-0  42520-3 0  9990","TLE_LINE2":"2 00119  66.7265  58.0203 0100166   4.2522 355.9402 14.27064529336956"},{"CCSDS_OMM_VERS":"3.0","COMMENT":"GENERATED VIA SPACE-TRACK.ORG API","CREATION_DATE":"2026-01-18T18:14:43","ORIGINATOR":"18 SPCS","OBJECT_NAME":"THOR ABLESTAR DEB","OBJECT_ID":"1961-015E","CENTER_NAME":"EARTH","REF_FRAME":"TEME","TIME_SYSTEM":"UTC","MEAN_ELEMENT_THEORY":"SGP4","EPOCH":"2026-01-18T13:51:29.178720","MEAN_MOTION":"14.29357404","ECCENTRICITY":"0.01044384","INCLINATION":"66.7053","RA_OF_ASC_NODE":"102.5474","ARG_OF_PERICENTER":"114.8394","MEAN_ANOMALY":"246.3608","EPHEMERIS_TYPE":"0","CLASSIFICATION_TYPE":"U","NORAD_CAT_ID":"120","ELEMENT_SET_NO":"999","REV_AT_EPOCH":"32694","BSTAR":"0.00022849288000","MEAN_MOTION_DOT":"0.00000533","MEAN_MOTION_DDOT":"0.0000000000000","SEMIMAJOR_AXIS":"7172.017","PERIOD":"100.745","APOAPSIS":"868.785","PERIAPSIS":"718.978","OBJECT_TYPE":"DEBRIS","RCS_SIZE":"MEDIUM","COUNTRY_CODE":"US","LAUNCH_DATE":"1961-06-29","SITE":"AFETR","DECAY_DATE":null,"FILE":"4972861","GP_ID":"309361520","TLE_LINE0":"0 THOR ABLESTAR DEB","TLE_LINE1":"1 00120U 61015E   26018.57742105  .00000533  00000-0  22849-3 0  9993","TLE_LINE2":"2 00120  66.7053 102.5474 0104438 114.8394 246.3608 14.29357404326947"},{"CCSDS_OMM_VERS":"3.0","COMMENT":"GENERATED VIA SPACE-TRACK.ORG API","CREATION_DATE":"2026-01-18T18:14:43","ORIGINATOR":"18 SPCS","OBJECT_NAME":"THOR ABLESTAR DEB","OBJECT_ID":"1961-015F","CENTER_NAME":"EARTH","REF_FRAME":"TEME","TIME_SYSTEM":"UTC","MEAN_ELEMENT_THEORY":"SGP4","EPOCH":"2026-01-18T10:58:20.704512","MEAN_MOTION":"14.00200622","ECCENTRICITY":"0.00863239","INCLINATION":"66.7473","RA_OF_ASC_NODE":"53.7094","ARG_OF_PERICENTER":"111.3826","MEAN_ANOMALY":"249.6496","EPHEMERIS_TYPE":"0","CLASSIFICATION_TYPE":"U","NORAD_CAT_ID":"121","ELEMENT_SET_NO":"999","REV_AT_EPOCH":"30540","BSTAR":"0.00006036336200","MEAN_MOTION_DOT":"0.00000013","MEAN_MOTION_DDOT":"0.0000000000000","SEMIMAJOR_AXIS":"7271.238","PERIOD":"102.842","APOAPSIS":"955.871","PERIAPSIS":"830.334","OBJECT_TYPE":"DEBRIS","RCS_SIZE":"MEDIUM","COUNTRY_CODE":"US","LAUNCH_DATE":"1961-06-29","SITE":"AFETR","DECAY_DATE":null,"FILE":"4972861","GP_ID":"309361021","TLE_LINE0":"0 THOR ABLESTAR DEB","TLE_LINE1":"1 00121U 61015F   26018.45718408  .00000013  00000-0  60363-4 0  9997","TLE_LINE2":"2 00121  66.7473  53.7094 0086324 111.3826 249.6496 14.00200622305401"}]